start=new Date('2023-05-06T00:00:00.000Z').valueOf();
sats=[{"PERIAPSIS":"538.975","OBJECT_NAME":"STARLINK-3572","COUNTRY_CODE":"US","REF_FRAME":"TEME","LAUNCH_DATE":"2022-03-03","DECAY_DATE":null,"RA_OF_ASC_NODE":"342.5561","ELEMENT_SET_NO":"999","CENTER_NAME":"EARTH","EPHEMERIS_TYPE":"0","CLASSIFICATION_TYPE":"U","MEAN_ANOMALY":"266.0558","NORAD_CAT_ID":"51879","OBJECT_ID":"2022-022AD","APOAPSIS":"540.483","ARG_OF_PERICENTER":"94.0559","TIME_SYSTEM":"UTC","MEAN_ELEMENT_THEORY":"SGP4","REV_AT_EPOCH":"6642","INCLINATION":"53.2171","OBJECT_TYPE":"PAYLOAD","MEAN_MOTION_DDOT":"0.0000000000000","EPOCH":"2023-05-05T20:55:09.759936","SITE":"AFETR","MEAN_MOTION_DOT":"0.00003084","BSTAR":"0.00021175000000","FILE":"3901913","RCS_SIZE":"LARGE","SEMIMAJOR_AXIS":"6917.864","TLE_LINE2":"2 51879  53.2171 342.5561 0001090  94.0559 266.0558 15.08845508 66423","TLE_LINE1":"1 51879U 22022AD  23125.87164074  .00003084  00000-0  21175-3 0  9992","MEAN_MOTION":"15.08845508","ECCENTRICITY":"0.00010900","PERIOD":"95.437","GP_ID":"231293540"},{"MEAN_ELEMENT_THEORY":"SGP4","REV_AT_EPOCH":"6625","OBJECT_TYPE":"PAYLOAD","INCLINATION":"53.2175","ARG_OF_PERICENTER":"89.4082","TIME_SYSTEM":"UTC","GP_ID":"231288626","PERIOD":"95.334","FILE":"3901704","SEMIMAJOR_AXIS":"6912.889","RCS_SIZE":"LARGE","MEAN_MOTION_DDOT":"0.0000000000000","EPOCH":"2023-05-05T15:28:33.782880","SITE":"AFETR","MEAN_MOTION_DOT":"0.00000673","BSTAR":"0.00005799400000","ECCENTRICITY":"0.00012210","MEAN_MOTION":"15.10474312","TLE_LINE2":"2 51880  53.2175 353.4725 0001221  89.4082 270.7050 15.10474312 66251","TLE_LINE1":"1 51880U 22022AE  23125.64483545  .00000673  00000-0  57994-4 0  9996","COUNTRY_CODE":"US","OBJECT_NAME":"STARLINK-3566","DECAY_DATE":null,"REF_FRAME":"TEME","LAUNCH_DATE":"2022-03-03","PERIAPSIS":"533.910","EPHEMERIS_TYPE":"0","CENTER_NAME":"EARTH","APOAPSIS":"535.599","MEAN_ANOMALY":"270.7050","CLASSIFICATION_TYPE":"U","NORAD_CAT_ID":"51880","OBJECT_ID":"2022-022AE","ELEMENT_SET_NO":"999","RA_OF_ASC_NODE":"353.4725"},{"GP_ID":"231247620","PERIOD":"95.437","ECCENTRICITY":"0.00010190","TLE_LINE2":"2 51881  53.2170 346.7520 0001019  86.9615 273.1494 15.08844120 66337","TLE_LINE1":"1 51881U 22022AF  23124.93692216  .00000912  00000-0  75358-4 0  9995","MEAN_MOTION":"15.08844120","SEMIMAJOR_AXIS":"6917.868","FILE":"3901106","RCS_SIZE":"LARGE","EPOCH":"2023-05-04T22:29:10.074624","MEAN_MOTION_DDOT":"0.0000000000000","SITE":"AFETR","MEAN_MOTION_DOT":"0.00000912","BSTAR":"0.00007535800000","OBJECT_TYPE":"PAYLOAD","INCLINATION":"53.2170","REV_AT_EPOCH":"6633","MEAN_ELEMENT_THEORY":"SGP4","ARG_OF_PERICENTER":"86.9615","TIME_SYSTEM":"UTC","APOAPSIS":"540.438","MEAN_ANOMALY":"273.1494","CLASSIFICATION_TYPE":"U","OBJECT_ID":"2022-022AF","NORAD_CAT_ID":"51881","EPHEMERIS_TYPE":"0","CENTER_NAME":"EARTH","ELEMENT_SET_NO":"999","RA_OF_ASC_NODE":"346.7520","DECAY_DATE":null,"REF_FRAME":"TEME","LAUNCH_DATE":"2022-03-03","COUNTRY_CODE":"US","OBJECT_NAME":"STARLINK-3504","PERIAPSIS":"539.028"},{"ELEMENT_SET_NO":"999","RA_OF_ASC_NODE":"343.7365","CENTER_NAME":"EARTH","EPHEMERIS_TYPE":"0","MEAN_ANOMALY":"301.5071","CLASSIFICATION_TYPE":"U","OBJECT_ID":"2022-022AG","NORAD_CAT_ID":"51882","APOAPSIS":"540.402","PERIAPSIS":"539.040","OBJECT_NAME":"STARLINK-3570","COUNTRY_CODE":"US","REF_FRAME":"TEME","LAUNCH_DATE":"2022-03-03","DECAY_DATE":null,"MEAN_MOTION_DDOT":"0.0000000000000","EPOCH":"2023-05-05T14:40:18.067008","SITE":"AFETR","BSTAR":"0.00028954000000","MEAN_MOTION_DOT":"0.00004324","FILE":"3901661","RCS_SIZE":"LARGE","SEMIMAJOR_AXIS":"6917.856","TLE_LINE2":"2 51882  53.2165 343.7365 0000984  58.6018 301.5071 15.08847912 66439","MEAN_MOTION":"15.08847912","TLE_LINE1":"1 51882U 22022AG  23125.61132022  .00004324  00000-0  28954-3 0  9996","ECCENTRICITY":"0.00009840","PERIOD":"95.437","GP_ID":"231287567","ARG_OF_PERICENTER":"58.6018","TIME_SYSTEM":"UTC","REV_AT_EPOCH":"6643","MEAN_ELEMENT_THEORY":"SGP4","INCLINATION":"53.2165","OBJECT_TYPE":"PAYLOAD"},{"ELEMENT_SET_NO":"999","RA_OF_ASC_NODE":"343.9123","EPHEMERIS_TYPE":"0","CENTER_NAME":"EARTH","APOAPSIS":"540.473","MEAN_ANOMALY":"278.9709","CLASSIFICATION_TYPE":"U","OBJECT_ID":"2022-022AH","NORAD_CAT_ID":"51883","PERIAPSIS":"539.017","COUNTRY_CODE":"US","OBJECT_NAME":"STARLINK-3576","DECAY_DATE":null,"REF_FRAME":"TEME","LAUNCH_DATE":"2022-03-03","FILE":"3901708","RCS_SIZE":"LARGE","SEMIMAJOR_AXIS":"6917.880","EPOCH":"2023-05-05T14:38:57.419520","MEAN_MOTION_DDOT":"0.0000000000000","MEAN_MOTION_DOT":"0.00003204","SITE":"AFETR","BSTAR":"0.00021929000000","ECCENTRICITY":"0.00010520","MEAN_MOTION":"15.08840114","TLE_LINE2":"2 51883  53.2163 343.9123 0001052  81.1403 278.9709 15.08840114 66373","TLE_LINE1":"1 51883U 22022AH  23125.61038680  .00003204  00000-0  21929-3 0  9993","GP_ID":"231288492","PERIOD":"95.438","ARG_OF_PERICENTER":"81.1403","TIME_SYSTEM":"UTC","REV_AT_EPOCH":"6637","MEAN_ELEMENT_THEORY":"SGP4","OBJECT_TYPE":"PAYLOAD","INCLINATION":"53.2163"},{"NORAD_CAT_ID":"51884","OBJECT_ID":"2022-022AJ","MEAN_ANOMALY":"274.0292","CLASSIFICATION_TYPE":"U","APOAPSIS":"540.426","CENTER_NAME":"EARTH","EPHEMERIS_TYPE":"0","ELEMENT_SET_NO":"999","RA_OF_ASC_NODE":"342.5752","LAUNCH_DATE":"2022-03-03","REF_FRAME":"TEME","DECAY_DATE":null,"OBJECT_NAME":"STARLINK-3577","COUNTRY_CODE":"US","PERIAPSIS":"539.065","PERIOD":"95.438","GP_ID":"231293614","TLE_LINE2":"2 51884  53.2154 342.5752 0000984  86.0813 274.0292 15.08840014 66507","MEAN_MOTION":"15.08840014","TLE_LINE1":"1 51884U 22022AJ  23125.86796517  .00001872  00000-0  13569-3 0  9991","ECCENTRICITY":"0.00009840","SITE":"AFETR","BSTAR":"0.00013569000000","MEAN_MOTION_DOT":"0.00001872","EPOCH":"2023-05-05T20:49:52.190688","MEAN_MOTION_DDOT":"0.0000000000000","FILE":"3901914","RCS_SIZE":"LARGE","SEMIMAJOR_AXIS":"6917.880","INCLINATION":"53.2154","OBJECT_TYPE":"PAYLOAD","MEAN_ELEMENT_THEORY":"SGP4","REV_AT_EPOCH":"6650","TIME_SYSTEM":"UTC","ARG_OF_PERICENTER":"86.0813"},{"EPOCH":"2023-05-05T22:04:03.594720","MEAN_MOTION_DDOT":"0.0000000000000","BSTAR":"0.00012041000000","SITE":"AFETR","MEAN_MOTION_DOT":"0.00001630","FILE":"3901914","SEMIMAJOR_AXIS":"6917.828","RCS_SIZE":"LARGE","TLE_LINE1":"1 51885U 22022AK  23125.91948605  .00001630  00000-0  12041-3 0  9991","TLE_LINE2":"2 51885  53.2175 342.3413 0001101  76.6733 283.4381 15.08857287 66425","MEAN_MOTION":"15.08857287","ECCENTRICITY":"0.00011010","PERIOD":"95.436","GP_ID":"231293617","ARG_OF_PERICENTER":"76.6733","TIME_SYSTEM":"UTC","MEAN_ELEMENT_THEORY":"SGP4","REV_AT_EPOCH":"6642","INCLINATION":"53.2175","OBJECT_TYPE":"PAYLOAD","ELEMENT_SET_NO":"999","RA_OF_ASC_NODE":"342.3413","CENTER_NAME":"EARTH","EPHEMERIS_TYPE":"0","CLASSIFICATION_TYPE":"U","MEAN_ANOMALY":"283.4381","NORAD_CAT_ID":"51885","OBJECT_ID":"2022-022AK","APOAPSIS":"540.454","PERIAPSIS":"538.931","OBJECT_NAME":"STARLINK-3584","COUNTRY_CODE":"US","REF_FRAME":"TEME","LAUNCH_DATE":"2022-03-03","DECAY_DATE":null},{"PERIOD":"95.438","GP_ID":"231293548","TLE_LINE2":"2 51886  53.2187 342.6075 0001471  88.5597 271.5564 15.08832693 66421","TLE_LINE1":"1 51886U 22022AL  23125.86061019  .00001164  00000-0  91246-4 0  9998","MEAN_MOTION":"15.08832693","ECCENTRICITY":"0.00014710","MEAN_MOTION_DDOT":"0.0000000000000","EPOCH":"2023-05-05T20:39:16.720416","SITE":"AFETR","MEAN_MOTION_DOT":"0.00001164","BSTAR":"0.00009124600000","FILE":"3901914","SEMIMAJOR_AXIS":"6917.903","RCS_SIZE":"LARGE","INCLINATION":"53.2187","OBJECT_TYPE":"PAYLOAD","MEAN_ELEMENT_THEORY":"SGP4","REV_AT_EPOCH":"6642","ARG_OF_PERICENTER":"88.5597","TIME_SYSTEM":"UTC","MEAN_ANOMALY":"271.5564","CLASSIFICATION_TYPE":"U","NORAD_CAT_ID":"51886","OBJECT_ID":"2022-022AL","APOAPSIS":"540.785","CENTER_NAME":"EARTH","EPHEMERIS_TYPE":"0","RA_OF_ASC_NODE":"342.6075","ELEMENT_SET_NO":"999","REF_FRAME":"TEME","LAUNCH_DATE":"2022-03-03","DECAY_DATE":null,"OBJECT_NAME":"STARLINK-3565","COUNTRY_CODE":"US","PERIAPSIS":"538.750"},{"REF_FRAME":"TEME","LAUNCH_DATE":"2022-03-03","DECAY_DATE":null,"OBJECT_NAME":"STARLINK-3551","COUNTRY_CODE":"US","PERIAPSIS":"539.102","MEAN_ANOMALY":"293.3672","CLASSIFICATION_TYPE":"U","NORAD_CAT_ID":"51887","OBJECT_ID":"2022-022AM","APOAPSIS":"540.378","CENTER_NAME":"EARTH","EPHEMERIS_TYPE":"0","RA_OF_ASC_NODE":"342.0601","ELEMENT_SET_NO":"999","INCLINATION":"53.2173","OBJECT_TYPE":"PAYLOAD","MEAN_ELEMENT_THEORY":"SGP4","REV_AT_EPOCH":"6643","ARG_OF_PERICENTER":"66.7417","TIME_SYSTEM":"UTC","PERIOD":"95.437","GP_ID":"231293547","TLE_LINE1":"1 51887U 22022AM  23125.98204396  .00002492  00000-0  17460-3 0  9999","TLE_LINE2":"2 51887  53.2173 342.0601 0000922  66.7417 293.3672 15.08841688 66432","MEAN_MOTION":"15.08841688","ECCENTRICITY":"0.00009220","EPOCH":"2023-05-05T23:34:08.598144","MEAN_MOTION_DDOT":"0.0000000000000","BSTAR":"0.00017460000000","SITE":"AFETR","MEAN_MOTION_DOT":"0.00002492","SEMIMAJOR_AXIS":"6917.875","FILE":"3901914","RCS_SIZE":"LARGE"},{"MEAN_ELEMENT_THEORY":"SGP4","REV_AT_EPOCH":"6643","OBJECT_TYPE":"PAYLOAD","INCLINATION":"53.2171","ARG_OF_PERICENTER":"90.8233","TIME_SYSTEM":"UTC","GP_ID":"231293546","PERIOD":"95.438","FILE":"3901914","RCS_SIZE":"LARGE","SEMIMAJOR_AXIS":"6917.884","EPOCH":"2023-05-05T22:09:21.702240","MEAN_MOTION_DDOT":"0.0000000000000","BSTAR":"0.00006490500000","SITE":"AFETR","MEAN_MOTION_DOT":"0.00000745","ECCENTRICITY":"0.00011490","TLE_LINE2":"2 51888  53.2171 342.3267 0001149  90.8233 269.2891 15.08838963 66435","MEAN_MOTION":"15.08838963","TLE_LINE1":"1 51888U 22022AN  23125.92316785  .00000745  00000-0  64905-4 0  9996","COUNTRY_CODE":"US","OBJECT_NAME":"STARLINK-3536","DECAY_DATE":null,"REF_FRAME":"TEME","LAUNCH_DATE":"2022-03-03","PERIAPSIS":"538.954","EPHEMERIS_TYPE":"0","CENTER_NAME":"EARTH","APOAPSIS":"540.543","MEAN_ANOMALY":"269.2891","CLASSIFICATION_TYPE":"U","OBJECT_ID":"2022-022AN","NORAD_CAT_ID":"51888","ELEMENT_SET_NO":"999","RA_OF_ASC_NODE":"342.3267"}];
